[
  {
    "OBJECT_NAME": "STARLINK-30401",
    "OBJECT_ID": "23138L",
    "EPOCH": "2025-11-11T06:38:55.830048",
    "MEAN_MOTION": 15.0254377,
    "ECCENTRICITY": 0.000116,
    "INCLINATION": 43.0,
    "RA_OF_ASC_NODE": 159.4926,
    "ARG_OF_PERICENTER": 268.3491,
    "MEAN_ANOMALY": 91.7219,
    "EPHEMERIS_TYPE": 0,
    "CLASSIFICATION_TYPE": "U",
    "NORAD_CAT_ID": 57818,
    "ELEMENT_SET_NO": 999,
    "REV_AT_EPOCH": 12080,
    "BSTAR": 0.0,
    "MEAN_MOTION_DOT": -8.09e-06,
    "MEAN_MOTION_DDOT": 0.0,
    "TLE_LINE1": "1 57818U 23138L   25315.27703507 -.00000809  00000+0 -44784-4 0  9992",
    "TLE_LINE2": "2 57818  43.0000 159.4926 0001160 268.3491  91.7219 15.02543770120809",
    "COMMENT": "Grouped by shell and plane from TLE"
  },
  {
    "OBJECT_NAME": "STARLINK-30409",
    "OBJECT_ID": "23138N",
    "EPOCH": "2025-11-11T06:14:58.261056",
    "MEAN_MOTION": 15.02515055,
    "ECCENTRICITY": 0.0001533,
    "INCLINATION": 43.0035,
    "RA_OF_ASC_NODE": 159.3513,
    "ARG_OF_PERICENTER": 266.3001,
    "MEAN_ANOMALY": 93.7666,
    "EPHEMERIS_TYPE": 0,
    "CLASSIFICATION_TYPE": "U",
    "NORAD_CAT_ID": 57820,
    "ELEMENT_SET_NO": 999,
    "REV_AT_EPOCH": 12084,
    "BSTAR": 0.0,
    "MEAN_MOTION_DOT": -1.851e-05,
    "MEAN_MOTION_DDOT": 0.0,
    "TLE_LINE1": "1 57820U 23138N   25315.26039654 -.00001851  00000+0 -12205-3 0  9999",
    "TLE_LINE2": "2 57820  43.0035 159.3513 0001533 266.3001  93.7666 15.02515055120847",
    "COMMENT": "Grouped by shell and plane from TLE"
  },
  {
    "OBJECT_NAME": "STARLINK-30415",
    "OBJECT_ID": "23138P",
    "EPOCH": "2025-11-11T06:21:20.219040",
    "MEAN_MOTION": 15.02538067,
    "ECCENTRICITY": 0.0001213,
    "INCLINATION": 43.0027,
    "RA_OF_ASC_NODE": 159.4054,
    "ARG_OF_PERICENTER": 264.3289,
    "MEAN_ANOMALY": 95.7415,
    "EPHEMERIS_TYPE": 0,
    "CLASSIFICATION_TYPE": "U",
    "NORAD_CAT_ID": 57821,
    "ELEMENT_SET_NO": 999,
    "REV_AT_EPOCH": 12090,
    "BSTAR": 9.642900000000001e-05,
    "MEAN_MOTION_DOT": 1.099e-05,
    "MEAN_MOTION_DDOT": 0.0,
    "TLE_LINE1": "1 57821U 23138P   25315.26481735  .00001099  00000+0  96429-4 0  9994",
    "TLE_LINE2": "2 57821  43.0027 159.4054 0001213 264.3289  95.7415 15.02538067120900",
    "COMMENT": "Grouped by shell and plane from TLE"
  },
  {
    "OBJECT_NAME": "STARLINK-30411",
    "OBJECT_ID": "23138W",
    "EPOCH": "2025-11-11T06:10:08.988672",
    "MEAN_MOTION": 15.02539179,
    "ECCENTRICITY": 0.0001556,
    "INCLINATION": 43.0026,
    "RA_OF_ASC_NODE": 159.328,
    "ARG_OF_PERICENTER": 264.9146,
    "MEAN_ANOMALY": 95.1519,
    "EPHEMERIS_TYPE": 0,
    "CLASSIFICATION_TYPE": "U",
    "NORAD_CAT_ID": 57828,
    "ELEMENT_SET_NO": 999,
    "REV_AT_EPOCH": 12083,
    "BSTAR": 0.0001207,
    "MEAN_MOTION_DOT": 1.427e-05,
    "MEAN_MOTION_DDOT": 0.0,
    "TLE_LINE1": "1 57828U 23138W   25315.25704848  .00001427  00000+0  12070-3 0  9997",
    "TLE_LINE2": "2 57828  43.0026 159.3280 0001556 264.9146  95.1519 15.02539179120830",
    "COMMENT": "Grouped by shell and plane from TLE"
  },
  {
    "OBJECT_NAME": "STARLINK-31066",
    "OBJECT_ID": "23211K",
    "EPOCH": "2025-11-11T06:17:43.661760",
    "MEAN_MOTION": 15.02535606,
    "ECCENTRICITY": 0.0001231,
    "INCLINATION": 43.0027,
    "RA_OF_ASC_NODE": 158.1854,
    "ARG_OF_PERICENTER": 264.5833,
    "MEAN_ANOMALY": 95.4869,
    "EPHEMERIS_TYPE": 0,
    "CLASSIFICATION_TYPE": "U",
    "NORAD_CAT_ID": 58676,
    "ELEMENT_SET_NO": 999,
    "REV_AT_EPOCH": 10417,
    "BSTAR": 8.381e-05,
    "MEAN_MOTION_DOT": 9.29e-06,
    "MEAN_MOTION_DDOT": 0.0,
    "TLE_LINE1": "1 58676U 23211K   25315.26231090  .00000929  00000+0  83810-4 0  9993",
    "TLE_LINE2": "2 58676  43.0027 158.1854 0001231 264.5833  95.4869 15.02535606104177",
    "COMMENT": "Grouped by shell and plane from TLE"
  }
]